[{"OBJECT_NAME":"KUIPER-00142","OBJECT_ID":"2025-217E","EPOCH":"2026-03-09T06:52:04.501344","MEAN_MOTION":14.79949047,"ECCENTRICITY":5.833e-5,"INCLINATION":51.9001,"RA_OF_ASC_NODE":37.3746,"ARG_OF_PERICENTER":83.1443,"MEAN_ANOMALY":276.9586,"EPHEMERIS_TYPE":0,"CLASSIFICATION_TYPE":"U","NORAD_CAT_ID":65766,"ELEMENT_SET_NO":999,"REV_AT_EPOCH":2492,"BSTAR":0.00076660108,"MEAN_MOTION_DOT":5.63e-5,"MEAN_MOTION_DDOT":0},{"OBJECT_NAME":"COSMOS 2251 DEB","OBJECT_ID":"1993-036BLQ","EPOCH":"2026-03-06T05:04:26.488416","MEAN_MOTION":14.86505912,"ECCENTRICITY":0.00311046,"INCLINATION":73.9007,"RA_OF_ASC_NODE":25.3512,"ARG_OF_PERICENTER":209.5027,"MEAN_ANOMALY":150.4399,"EPHEMERIS_TYPE":0,"CLASSIFICATION_TYPE":"U","NORAD_CAT_ID":37487,"ELEMENT_SET_NO":999,"REV_AT_EPOCH":82483,"BSTAR":0.004490224,"MEAN_MOTION_DOT":0.00040284,"MEAN_MOTION_DDOT":0}]
